DELTA 2 R/B(1)          
1 20453U 90008B   26052.00012549  .00061660  00000+0  78405-3 0  9992
2 20453  35.6040 284.1803 0088870 103.0443 258.0231 15.53535456923531
COSMOS 2058             
1 20465U 90010A   26052.49224217  .00003977  00000+0  23515-3 0  9997
2 20465  82.4668  63.3850 0010602  38.2884 321.9097 15.11162641939796
SL-14 R/B               
1 20466U 90010B   26052.36475323  .00000352  00000+0  39777-4 0  9992
2 20466  82.5005 282.7259 0019765 358.2059   1.9082 14.83553836926064
SL-14 R/B               
1 20511U 90018B   26051.96177350  .00000415  00000+0  49099-4 0  9993
2 20511  82.5179 238.7275 0017150 143.1709 217.0687 14.82124985920103
HST                     
1 20580U 90037B   26052.36770965  .00007671  00000+0  25514-3 0  9992
2 20580  28.4685 151.3204 0001114 297.1327  62.9155 15.29202051770812
SL-16 R/B               
1 20625U 90046B   26052.22602582  .00000161  00000+0  10782-3 0  9994
2 20625  71.0018 332.4894 0015564 322.3236  37.6795 14.15014255846068
COSMOS 2084             
1 20663U 90055A   26052.38336157  .00002619  00000+0  19435-3 0  9999
2 20663  62.7909  31.1865 0019578 186.3248 173.7609 15.05535348933869
SL-6 R/B(2)             
1 20666U 90055D   26052.14433580  .00001886  00000+0  15156-3 0  9995
2 20666  62.7837 310.1134 0022274 342.6836  17.3501 15.03508538935706
SL-8 R/B                
1 20775U 90078B   26052.31073255  .00014862  00000+0  43599-3 0  9999
2 20775  82.8993 266.0358 0365648  68.9308 295.0596 14.88478259806868
SL-8 R/B                
1 21088U 91006B   26052.50098854  .00000039  00000+0  23867-4 0  9990
2 21088  82.9454 182.0803 0023721  81.6832 349.3361 13.77492473761840
OKEAN-3                 
1 21397U 91039A   26052.32038272  .00003681  00000+0  25921-3 0  9995
2 21397  82.5210 352.6977 0015249  31.8075 328.4070 15.04676047862578
COSMOS 2151             
1 21422U 91042A   26052.47394534  .00001709  00000+0  13495-3 0  9992
2 21422  82.4944  99.3212 0014025 112.1815 248.0898 15.00038488860764
